STARLINK-37399          
1 68772U 26086G   26117.56389215  .00099522  59514-5  25884-3 0  9994
2 68772  97.2797 152.9874 0004739   9.9695 350.1674 15.95074178  1183
