{
  "norad_id": 68772,
  "name": "STARLINK-37399",
  "history": [
    {
      "epoch": "2026-04-27T13:32:00.281760Z",
      "apogee_km": 291.2669707914065,
      "perigee_km": 284.9484374110716,
      "latitude_deg": 6.947991507077212e-06,
      "longitude_deg": 94.43432561375501,
      "height_km": 288.1892327203701,
      "semi_major_axis_km": 6666.244704101239,
      "eccentricity": 0.00047392,
      "inclination_deg": 97.2797,
      "raan_deg": 152.9874,
      "arg_perigee_deg": 9.9695,
      "mean_anomaly_deg": 350.1674,
      "mean_motion_rev_day": 15.95074178
    }
  ]
}